CCSDS_OMM_VERS = 2.0
CREATION_DATE  = 
ORIGINATOR     = 

OBJECT_NAME    = ERS-1
OBJECT_ID      = 1991-050A
CENTER_NAME    = EARTH
REF_FRAME      = TEME
TIME_SYSTEM    = UTC
MEAN_ELEMENT_THEORY = SGP/SGP4

EPOCH          = 2026-03-31T07:33:48.439008
MEAN_MOTION    = 14.39466013
ECCENTRICITY   = .00327889
INCLINATION    = 98.7863
RA_OF_ASC_NODE = 109.0921
ARG_OF_PERICENTER = 136.7691
MEAN_ANOMALY   = 223.6079

EPHEMERIS_TYPE = 0
CLASSIFICATION_TYPE = U
NORAD_CAT_ID   = 21574
ELEMENT_SET_NO = 999
REV_AT_EPOCH   = 81884
BSTAR          = .14906938E-3
MEAN_MOTION_DOT = .421E-5
MEAN_MOTION_DDOT = 0

CCSDS_OMM_VERS = 2.0
CREATION_DATE  = 
ORIGINATOR     = 

OBJECT_NAME    = ARIANE 40 R/B
OBJECT_ID      = 1991-050F
CENTER_NAME    = EARTH
REF_FRAME      = TEME
TIME_SYSTEM    = UTC
MEAN_ELEMENT_THEORY = SGP/SGP4

EPOCH          = 2026-03-31T04:13:22.973376
MEAN_MOTION    = 14.42909360
ECCENTRICITY   = .00034144
INCLINATION    = 98.1967
RA_OF_ASC_NODE = 141.6015
ARG_OF_PERICENTER = 32.0181
MEAN_ANOMALY   = 328.1216

EPHEMERIS_TYPE = 0
CLASSIFICATION_TYPE = U
NORAD_CAT_ID   = 21610
ELEMENT_SET_NO = 999
REV_AT_EPOCH   = 82209
BSTAR          = .13012513E-3
MEAN_MOTION_DOT = .393E-5
MEAN_MOTION_DDOT = 0

CCSDS_OMM_VERS = 2.0
CREATION_DATE  = 
ORIGINATOR     = 

OBJECT_NAME    = INTERCOSMOS 25
OBJECT_ID      = 1991-086A
CENTER_NAME    = EARTH
REF_FRAME      = TEME
TIME_SYSTEM    = UTC
MEAN_ELEMENT_THEORY = SGP/SGP4

EPOCH          = 2026-03-31T00:53:34.035072
MEAN_MOTION    = 12.12073011
ECCENTRICITY   = .14864507
INCLINATION    = 82.6005
RA_OF_ASC_NODE = 297.1021
ARG_OF_PERICENTER = 70.9381
MEAN_ANOMALY   = 304.6424

EPHEMERIS_TYPE = 0
CLASSIFICATION_TYPE = U
NORAD_CAT_ID   = 21819
ELEMENT_SET_NO = 999
REV_AT_EPOCH   = 49927
BSTAR          = .44197056E-3
MEAN_MOTION_DOT = .2286E-4
MEAN_MOTION_DDOT = 0

CCSDS_OMM_VERS = 2.0
CREATION_DATE  = 
ORIGINATOR     = 

OBJECT_NAME    = SL-8 R/B
OBJECT_ID      = 1992-008B
CENTER_NAME    = EARTH
REF_FRAME      = TEME
TIME_SYSTEM    = UTC
MEAN_ELEMENT_THEORY = SGP/SGP4

EPOCH          = 2026-03-31T04:41:58.616448
MEAN_MOTION    = 13.75969543
ECCENTRICITY   = .00358546
INCLINATION    = 82.9235
RA_OF_ASC_NODE = 251.7760
ARG_OF_PERICENTER = 75.3183
MEAN_ANOMALY   = 97.1365

EPHEMERIS_TYPE = 0
CLASSIFICATION_TYPE = U
NORAD_CAT_ID   = 21876
ELEMENT_SET_NO = 999
REV_AT_EPOCH   = 71237
BSTAR          = -.4575138E-5
MEAN_MOTION_DOT = .11E-6
MEAN_MOTION_DDOT = 0

CCSDS_OMM_VERS = 2.0
CREATION_DATE  = 
ORIGINATOR     = 

OBJECT_NAME    = SL-8 R/B
OBJECT_ID      = 1992-020B
CENTER_NAME    = EARTH
REF_FRAME      = TEME
TIME_SYSTEM    = UTC
MEAN_ELEMENT_THEORY = SGP/SGP4

EPOCH          = 2026-03-31T05:22:33.836736
MEAN_MOTION    = 13.75550588
ECCENTRICITY   = .00278542
INCLINATION    = 82.9299
RA_OF_ASC_NODE = 137.7724
ARG_OF_PERICENTER = 235.8758
MEAN_ANOMALY   = 190.0905

EPHEMERIS_TYPE = 0
CLASSIFICATION_TYPE = U
NORAD_CAT_ID   = 21938
ELEMENT_SET_NO = 999
REV_AT_EPOCH   = 70409
BSTAR          = .3004403E-4
MEAN_MOTION_DOT = .44E-6
MEAN_MOTION_DDOT = 0

CCSDS_OMM_VERS = 2.0
CREATION_DATE  = 
ORIGINATOR     = 

OBJECT_NAME    = USA 81
OBJECT_ID      = 1992-023A
CENTER_NAME    = EARTH
REF_FRAME      = TEME
TIME_SYSTEM    = UTC
MEAN_ELEMENT_THEORY = SGP/SGP4

EPOCH          = 2026-03-31T07:33:05.444640
MEAN_MOTION    = 14.32375053
ECCENTRICITY   = .00016728
INCLINATION    = 85.0044
RA_OF_ASC_NODE = 118.9609
ARG_OF_PERICENTER = 68.3380
MEAN_ANOMALY   = 291.7991

EPHEMERIS_TYPE = 0
CLASSIFICATION_TYPE = U
NORAD_CAT_ID   = 21949
ELEMENT_SET_NO = 999
REV_AT_EPOCH   = 9788
BSTAR          = .76984675E-4
MEAN_MOTION_DOT = .228E-5
MEAN_MOTION_DDOT = 0

CCSDS_OMM_VERS = 2.0
CREATION_DATE  = 
ORIGINATOR     = 

OBJECT_NAME    = COSMOS 2219
OBJECT_ID      = 1992-076A
CENTER_NAME    = EARTH
REF_FRAME      = TEME
TIME_SYSTEM    = UTC
MEAN_ELEMENT_THEORY = SGP/SGP4

EPOCH          = 2026-03-31T04:00:14.887872
MEAN_MOTION    = 14.14090043
ECCENTRICITY   = .00178061
INCLINATION    = 71.0618
RA_OF_ASC_NODE = 333.1755
ARG_OF_PERICENTER = 175.1248
MEAN_ANOMALY   = 185.0052

EPHEMERIS_TYPE = 0
CLASSIFICATION_TYPE = U
NORAD_CAT_ID   = 22219
ELEMENT_SET_NO = 999
REV_AT_EPOCH   = 72141
BSTAR          = -.86515096E-4
MEAN_MOTION_DOT = -.212E-5
MEAN_MOTION_DDOT = 0

CCSDS_OMM_VERS = 2.0
CREATION_DATE  = 
ORIGINATOR     = 

OBJECT_NAME    = SL-16 R/B
OBJECT_ID      = 1992-076B
CENTER_NAME    = EARTH
REF_FRAME      = TEME
TIME_SYSTEM    = UTC
MEAN_ELEMENT_THEORY = SGP/SGP4

EPOCH          = 2026-03-31T05:31:32.526912
MEAN_MOTION    = 14.16863454
ECCENTRICITY   = .00107643
INCLINATION    = 70.9992
RA_OF_ASC_NODE = 143.0023
ARG_OF_PERICENTER = 56.2578
MEAN_ANOMALY   = 8.8383

EPHEMERIS_TYPE = 0
CLASSIFICATION_TYPE = U
NORAD_CAT_ID   = 22220
ELEMENT_SET_NO = 999
REV_AT_EPOCH   = 72488
BSTAR          = -.69308276E-4
MEAN_MOTION_DOT = -.187E-5
MEAN_MOTION_DDOT = 0

CCSDS_OMM_VERS = 2.0
CREATION_DATE  = 
ORIGINATOR     = 

OBJECT_NAME    = COSMOS 2221
OBJECT_ID      = 1992-080A
CENTER_NAME    = EARTH
REF_FRAME      = TEME
TIME_SYSTEM    = UTC
MEAN_ELEMENT_THEORY = SGP/SGP4

EPOCH          = 2026-03-30T23:17:55.195008
MEAN_MOTION    = 14.96292393
ECCENTRICITY   = .00155425
INCLINATION    = 82.5005
RA_OF_ASC_NODE = 258.6893
ARG_OF_PERICENTER = 118.7380
MEAN_ANOMALY   = 241.5406

EPHEMERIS_TYPE = 0
CLASSIFICATION_TYPE = U
NORAD_CAT_ID   = 22236
ELEMENT_SET_NO = 999
REV_AT_EPOCH   = 78397
BSTAR          = .24987397E-3
MEAN_MOTION_DOT = .2855E-4
MEAN_MOTION_DDOT = 0

CCSDS_OMM_VERS = 2.0
CREATION_DATE  = 
ORIGINATOR     = 

OBJECT_NAME    = SL-16 R/B
OBJECT_ID      = 1992-093B
CENTER_NAME    = EARTH
REF_FRAME      = TEME
TIME_SYSTEM    = UTC
MEAN_ELEMENT_THEORY = SGP/SGP4

EPOCH          = 2026-03-31T01:57:52.423200
MEAN_MOTION    = 14.15455616
ECCENTRICITY   = .00065558
INCLINATION    = 71.0228
RA_OF_ASC_NODE = 319.3606
ARG_OF_PERICENTER = 273.0739
MEAN_ANOMALY   = 86.9633

EPHEMERIS_TYPE = 0
CLASSIFICATION_TYPE = U
NORAD_CAT_ID   = 22285
ELEMENT_SET_NO = 999
REV_AT_EPOCH   = 71618
BSTAR          = .83002463E-4
MEAN_MOTION_DOT = .115E-5
MEAN_MOTION_DDOT = 0

CCSDS_OMM_VERS = 2.0
CREATION_DATE  = 
ORIGINATOR     = 

OBJECT_NAME    = COSMOS 2228
OBJECT_ID      = 1992-094A
CENTER_NAME    = EARTH
REF_FRAME      = TEME
TIME_SYSTEM    = UTC
MEAN_ELEMENT_THEORY = SGP/SGP4

EPOCH          = 2026-03-31T07:22:08.932512
MEAN_MOTION    = 14.97305867
ECCENTRICITY   = .00170093
INCLINATION    = 82.5191
RA_OF_ASC_NODE = 216.6125
ARG_OF_PERICENTER = 225.9756
MEAN_ANOMALY   = 134.0066

EPHEMERIS_TYPE = 0
CLASSIFICATION_TYPE = U
NORAD_CAT_ID   = 22286
ELEMENT_SET_NO = 999
REV_AT_EPOCH   = 77929
BSTAR          = .30184042E-3
MEAN_MOTION_DOT = .3535E-4
MEAN_MOTION_DDOT = 0

CCSDS_OMM_VERS = 2.0
CREATION_DATE  = 
ORIGINATOR     = 

OBJECT_NAME    = SL-16 R/B
OBJECT_ID      = 1993-016B
CENTER_NAME    = EARTH
REF_FRAME      = TEME
TIME_SYSTEM    = UTC
MEAN_ELEMENT_THEORY = SGP/SGP4

EPOCH          = 2026-03-31T04:40:56.436096
MEAN_MOTION    = 14.15306052
ECCENTRICITY   = .00123457
INCLINATION    = 71.0075
RA_OF_ASC_NODE = 170.0169
ARG_OF_PERICENTER = 286.4108
MEAN_ANOMALY   = 73.5657

EPHEMERIS_TYPE = 0
CLASSIFICATION_TYPE = U
NORAD_CAT_ID   = 22566
ELEMENT_SET_NO = 999
REV_AT_EPOCH   = 70521
BSTAR          = .97474986E-4
MEAN_MOTION_DOT = .142E-5
MEAN_MOTION_DDOT = 0

